ORBCOMM-X               
1 21576U 91050C   24150.14207115  .00000420  00000+0  13986-3 0  9994
2 21576  98.3901 217.6724 0002429 263.4284  96.6629 14.42529454726731
ORBCOMM FM01            
1 23545U 95017A   24150.83037329  .00006042  00000+0  80032-3 0  9995
2 23545  69.9677 303.0095 0007027 208.3093 151.7676 14.80350055555937
ORBCOMM FM02            
1 23546U 95017B   24150.86436578  .00006777  00000+0  90404-3 0  9997
2 23546  69.9698 322.3836 0008737 196.8943 163.1917 14.79974668555533
ORBCOMM FM08            
1 25112U 97084A   24150.57901698  .00001941  00000+0  62041-3 0  9996
2 25112  45.0154  45.0368 0007115 107.8177 252.3450 14.42700605385919
ORBCOMM FM10            
1 25113U 97084B   24150.79493812  .00002430  00000+0  76750-3 0  9991
2 25113  45.0164  45.8768 0005159  77.3168 282.8259 14.42602068386101
ORBCOMM FM11            
1 25114U 97084C   24150.12273102  .00001717  00000+0  55643-3 0  9992
2 25114  45.0149  49.1707 0005946  74.2579 285.8926 14.42467689385966
ORBCOMM FM12            
1 25115U 97084D   24150.84486971  .00002103  00000+0  67212-3 0  9997
2 25115  45.0159  45.4255 0004838  77.6198 282.5193 14.42440635386107
ORBCOMM FM09            
1 25116U 97084E   24150.09478117  .00001558  00000+0  50949-3 0  9990
2 25116  45.0161  49.6985 0006062  60.6739 299.4717 14.42398639385969
